Orbit 1
Satellite Number: 99999
Line 1: 1 99999U 20042A   26027.13434208  .00000000  00000-0  10000-4 0  9990
Line 2: 2 99999  97.6026 244.5554 0002648  62.3358 279.1176 15.06633827  1008
Keplerian Elements:
  Semi-major axis (a): 6921.621989 km
  Eccentricity (e): 0.000265
  Inclination (i): 97.602600 deg
  Argument of Perigee (ω): 62.335800 deg
  RAAN (Ω): 244.555400 deg
--------------------------------------------------
Orbit 2
Satellite Number: 64855
Line 1: 1 64855U 25152P   26027.13120177  .00004170  00000-0  29300-3 0  9991
Line 2: 2 64855  97.6038 244.5409 0001430  61.9416 298.1956 15.05655359 29168
Keplerian Elements:
  Semi-major axis (a): 6924.623057 km
  Eccentricity (e): 0.000143
  Inclination (i): 97.603800 deg
  Argument of Perigee (ω): 61.941600 deg
  RAAN (Ω): 244.540900 deg
--------------------------------------------------
Orbit 3
Satellite Number: 64857
Line 1: 1 64857U 25152R   26027.12013179  .00008492  00000-0  59199-3 0  9995
Line 2: 2 64857  97.6030 244.5627 0002167  87.7843 272.3631 15.05650510 29160
Keplerian Elements:
  Semi-major axis (a): 6924.637902 km
  Eccentricity (e): 0.000217
  Inclination (i): 97.603000 deg
  Argument of Perigee (ω): 87.784300 deg
  RAAN (Ω): 244.562700 deg
--------------------------------------------------
Orbit 4
Satellite Number: 64850
Line 1: 1 64850U 25152J   26027.13397895  .00009241  00000-0  64374-3 0  9993
Line 2: 2 64850  97.6033 244.5352 0002162  88.2078 271.9396 15.05654153 29162
Keplerian Elements:
  Semi-major axis (a): 6924.626736 km
  Eccentricity (e): 0.000216
  Inclination (i): 97.603300 deg
  Argument of Perigee (ω): 88.207800 deg
  RAAN (Ω): 244.535200 deg
--------------------------------------------------
